OBJECT_NAME,OBJECT_ID,EPOCH,MEAN_MOTION,ECCENTRICITY,INCLINATION,RA_OF_ASC_NODE,ARG_OF_PERICENTER,MEAN_ANOMALY,EPHEMERIS_TYPE,CLASSIFICATION_TYPE,NORAD_CAT_ID,ELEMENT_SET_NO,REV_AT_EPOCH,BSTAR,MEAN_MOTION_DOT,MEAN_MOTION_DDOT
TECMS,2022-090A,2026-06-07T07:02:07.732320,15.21339333,.00024141,97.3137,226.6820,212.6645,147.4442,0,U,53346,999,21330,.18034056E-3,.3971E-4,0
DONGPO 02,2022-098J,2026-06-07T07:43:01.831872,15.72705955,.0001186,97.5507,288.6711,316.2465,43.8704,0,U,53452,999,21324,.71885104E-3,.97404E-3,0
DONGPO 01,2022-098K,2026-06-07T07:10:44.023296,15.70733686,.00012084,97.5576,289.1973,240.7952,119.3189,0,U,53453,999,21320,.69553752E-3,.86649E-3,0
STARLINK-4400,2022-099D,2026-06-07T01:50:31.551648,15.05628775,.00008507,97.3939,277.5569,201.7005,158.4187,0,U,53468,999,20942,-.35879847E-3,-.5228E-4,0
STARLINK-4621,2022-105AE,2026-06-06T14:44:35.890656,15.05670794,.00021448,97.3961,37.1248,76.9338,283.2129,0,U,53676,999,20661,-.53070363E-4,-.824E-5,0
SHERPA-LTC2,2022-107BG,2026-06-06T23:39:10.436544,14.69580772,.03950105,53.2344,263.5142,197.4604,161.2460,0,U,53754,999,20104,.42599462E-3,.8501E-4,0
CENTISPACE-1 S3,2022-108A,2026-06-07T02:01:33.901824,14.61239721,.00087333,53.5324,97.0338,326.2345,33.8073,0,U,53757,999,20005,.1308481E-3,.461E-5,0
CENTISPACE-1 S4,2022-108B,2026-06-07T01:45:42.501312,14.61917372,.00080309,53.5300,94.6451,313.2805,46.7500,0,U,53758,999,20008,.16272699E-3,.631E-5,0
BLUEWALKER-3,2022-111AL,2026-06-06T12:34:30.340128,15.38137943,.0006979,53.2294,84.0273,131.1637,228.9971,0,U,53807,999,20856,.22155E-3,.8061E-4,0
YUNHAI-1 03,2022-115A,2026-06-07T06:29:33.104256,14.32711424,.0006021,98.5532,156.5437,79.0176,281.1685,0,U,53877,999,19409,.14226059E-3,.344E-5,0
CENTISPACE-1 S5,2022-126A,2026-06-06T21:41:01.923072,14.62998382,.0014226,54.9990,254.1121,53.3485,306.8815,0,U,54020,999,19553,.20852073E-3,.888E-5,0
CENTISPACE-1 S6,2022-126B,2026-06-06T23:02:19.349088,14.62279071,.00160846,54.9993,255.7040,53.0810,307.1655,0,U,54021,999,19550,.16871738E-3,.669E-5,0
OTB-3-GAZELLE,2022-127A,2026-06-07T05:04:08.996736,14.42670933,.00123435,98.3941,150.0676,214.1235,145.9162,0,U,54023,999,19292,.68184789E-4,.183E-5,0
ASO-S,2022-129A,2026-06-07T06:17:27.182688,14.52057098,.0015522,98.2748,163.4848,120.5998,239.6730,0,U,54029,999,19398,.77566004E-4,.27E-5,0
HJ-2E,2022-132A,2026-06-07T07:02:22.929216,15.22165741,.00217553,97.3802,162.8494,48.3946,311.9150,0,U,54035,999,20291,.40824818E-3,.9361E-4,0
COSMOS 2561,2022-137A,2026-06-06T20:14:04.113024,15.51440790,.0011676,96.9181,217.2327,69.5114,290.7392,0,U,54109,999,20474,.28003E-3,.16481E-3,0
GONETS-M 23,2022-139A,2026-06-07T06:44:51.048096,12.42890363,.00206103,82.5073,354.4520,242.2995,117.5994,0,U,54150,999,16441,.16335932E-4,.12E-6,0
GONETS-M 24,2022-139B,2026-06-07T06:06:07.180128,12.42891012,.00157819,82.4989,353.5353,253.1642,106.7707,0,U,54151,999,16441,.14244518E-3,.3E-6,0
GONETS-M 25,2022-139C,2026-06-07T05:46:29.739936,12.42889699,.00197008,82.5049,354.2248,251.6857,108.2079,0,U,54152,999,16441,.73827827E-4,.2E-6,0
SKIF-D,2022-139D,2026-06-05T06:21:51.112224,5.00431182,.00073766,89.9527,96.6710,204.6047,155.4055,0,U,54153,999,6351,0,.21E-6,0
MATS,2022-147A,2026-06-07T06:39:35.546400,15.05297324,.00112301,97.6830,159.9177,228.2823,131.7444,0,U,54227,999,19627,.29765929E-3,.42E-4,0
JILIN-1 GAOFEN 03D54,2022-155D,2026-06-07T07:16:17.804640,15.92623601,.000369,97.6129,310.1362,269.4096,90.6754,0,U,54254,999,19872,.79501563E-3,.269705E-2,.2963863E-4
EOS-6 (OCEANSAT-3),2022-158A,2026-06-07T06:35:09.119040,14.46994813,.00016978,98.3533,256.6003,59.4613,300.6747,0,U,54361,999,18640,.10551851E-3,.34E-5,0
DONGPO 09,2022-167D,2026-06-07T07:31:57.103968,15.36113335,.00032486,97.6899,328.8823,138.4947,221.6543,0,U,54685,999,19393,.35312996E-3,.12344E-3,0
DONGPO 08,2022-167E,2026-06-07T06:39:00.958752,15.33446176,.00078786,97.6862,326.0689,193.9649,166.1376,0,U,54686,999,19380,.35634053E-3,.11451E-3,0
2022-167F,2022-167F,2026-06-07T06:28:33.501216,15.88613758,.00011467,97.6137,344.9885,180.2623,179.8648,0,U,54687,999,19525,.69439572E-3,.196858E-2,0
DONGPO 10,2022-167H,2026-06-07T06:56:05.004384,15.34249048,.00059701,97.6943,328.0094,138.2202,221.9496,0,U,54689,999,19384,.35862282E-3,.11817E-3,0
JILIN-1 GAOFEN 03D48,2022-167P,2026-06-07T06:59:51.108000,15.35006645,.00072423,97.6878,327.3867,144.7165,215.4558,0,U,54695,999,19387,.36846081E-3,.12444E-3,0
STAR VIBE,2023-001A,2026-06-07T05:52:29.252064,15.42344219,.00068515,97.3170,222.6703,140.4581,219.7168,0,U,55009,999,19069,.38014903E-3,.16331E-3,0
BRO-8,2023-001C,2026-06-07T05:27:21.451104,15.48444188,.00068726,97.3211,223.2723,150.2671,209.8971,0,U,55011,999,19066,.61741425E-3,.32792E-3,0
