TECMS                   
1 53346U 22090A   26158.29314505  .00003971  00000+0  18034-3 0  9993
2 53346  97.3137 226.6820 0002414 212.6645 147.4442 15.21339333213304
DONGPO 02               
1 53452U 22098J   26158.32154898  .00097404  00000+0  71885-3 0  9997
2 53452  97.5507 288.6711 0001186 316.2465  43.8704 15.72705955213244
DONGPO 01               
1 53453U 22098K   26158.29912064  .00086649  00000+0  69554-3 0  9990
2 53453  97.5576 289.1973 0001208 240.7952 119.3189 15.70733686213206
STARLINK-4400           
1 53468U 22099D   26158.07675407 -.00005228  00000+0 -35880-3 0  9991
2 53468  97.3939 277.5569 0000850 201.7005 158.4187 15.05628775209424
STARLINK-4621           
1 53676U 22105AE  26157.61430429 -.00000824  00000+0 -53070-4 0  9991
2 53676  97.3961  37.1248 0002144  76.9338 283.2129 15.05670794206612
SHERPA-LTC2             
1 53754U 22107BG  26157.98553746  .00008501  00000+0  42599-3 0  9999
2 53754  53.2344 263.5142 0395010 197.4604 161.2460 14.69580772201045
CENTISPACE-1 S3         
1 53757U 22108A   26158.08442016  .00000461  00000+0  13085-3 0  9997
2 53757  53.5324  97.0338 0008733 326.2345  33.8073 14.61239721200054
CENTISPACE-1 S4         
1 53758U 22108B   26158.07340858  .00000631  00000+0  16273-3 0  9999
2 53758  53.5300  94.6451 0008030 313.2805  46.7500 14.61917372200081
BLUEWALKER-3            
1 53807U 22111AL  26157.52396227  .00008061  00000+0  22155-3 0  9999
2 53807  53.2294  84.0273 0006979 131.1637 228.9971 15.38137943208560
YUNHAI-1 03             
1 53877U 22115A   26158.27052204  .00000344  00000+0  14226-3 0  9993
2 53877  98.5532 156.5437 0006021  79.0176 281.1685 14.32711424194097
CENTISPACE-1 S5         
1 54020U 22126A   26157.90349448  .00000888  00000+0  20852-3 0  9999
2 54020  54.9990 254.1121 0014226  53.3485 306.8815 14.62998382195534
CENTISPACE-1 S6         
1 54021U 22126B   26157.95994617  .00000669  00000+0  16872-3 0  9993
2 54021  54.9993 255.7040 0016084  53.0810 307.1655 14.62279071195508
OTB-3-GAZELLE           
1 54023U 22127A   26158.21121524  .00000183  00000+0  68185-4 0  9991
2 54023  98.3941 150.0676 0012343 214.1235 145.9162 14.42670933192926
ASO-S                   
1 54029U 22129A   26158.26212017  .00000270  00000+0  77566-4 0  9992
2 54029  98.2748 163.4848 0015522 120.5998 239.6730 14.52057098193984
HJ-2E                   
1 54035U 22132A   26158.29332094  .00009361  00000+0  40825-3 0  9991
2 54035  97.3802 162.8494 0021755  48.3946 311.9150 15.22165741202914
COSMOS 2561             
1 54109U 22137A   26157.84310316  .00016481  00000+0  28003-3 0  9996
2 54109  96.9181 217.2327 0011676  69.5114 290.7392 15.51440790204741
GONETS-M 23             
1 54150U 22139A   26158.28114639  .00000012  00000+0  16336-4 0  9993
2 54150  82.5073 354.4520 0020610 242.2995 117.5994 12.42890363164417
GONETS-M 24             
1 54151U 22139B   26158.25424977  .00000030  00000+0  14245-3 0  9996
2 54151  82.4989 353.5353 0015781 253.1642 106.7707 12.42891012164414
GONETS-M 25             
1 54152U 22139C   26158.24062199  .00000020  00000+0  73828-4 0  9992
2 54152  82.5049 354.2248 0019700 251.6857 108.2079 12.42889699164417
SKIF-D                  
1 54153U 22139D   26156.26517491  .00000021  00000+0  00000+0 0  9991
2 54153  89.9527  96.6710 0007376 204.6047 155.4055  5.00431182 63519
MATS                    
1 54227U 22147A   26158.27749475  .00004200  00000+0  29766-3 0  9991
2 54227  97.6830 159.9177 0011230 228.2823 131.7444 15.05297324196275
JILIN-1 GAOFEN 03D54    
1 54254U 22155D   26158.30298385  .00269705  29639-4  79502-3 0  9993
2 54254  97.6129 310.1362 0003690 269.4096  90.6754 15.92623601198729
EOS-6 (OCEANSAT-3)      
1 54361U 22158A   26158.27441110  .00000340  00000+0  10552-3 0  9991
2 54361  98.3533 256.6003 0001697  59.4613 300.6747 14.46994813186400
DONGPO 09               
1 54685U 22167D   26158.31385537  .00012344  00000+0  35313-3 0  9994
2 54685  97.6899 328.8823 0003248 138.4947 221.6543 15.36113335193934
DONGPO 08               
1 54686U 22167E   26158.27709443  .00011451  00000+0  35634-3 0  9990
2 54686  97.6862 326.0689 0007878 193.9649 166.1376 15.33446176193805
2022-167F               
1 54687U 22167F   26158.26983219  .00196858  00000+0  69440-3 0  9992
2 54687  97.6137 344.9885 0001146 180.2623 179.8648 15.88613758195257
DONGPO 10               
1 54689U 22167H   26158.28894681  .00011817  00000+0  35862-3 0  9992
2 54689  97.6943 328.0094 0005970 138.2202 221.9496 15.34249048193845
JILIN-1 GAOFEN 03D48    
1 54695U 22167P   26158.29156375  .00012444  00000+0  36846-3 0  9991
2 54695  97.6878 327.3867 0007242 144.7165 215.4558 15.35006645193878
STAR VIBE               
1 55009U 23001A   26158.24478301  .00016331  00000+0  38015-3 0  9999
2 55009  97.3170 222.6703 0006851 140.4581 219.7168 15.42344219190697
BRO-8                   
1 55011U 23001C   26158.22733161  .00032792  00000+0  61741-3 0  9999
2 55011  97.3211 223.2723 0006872 150.2671 209.8971 15.48444188190668
